NORAD_CAT_ID,OBJECT_NAME,OBJECT_TYPE,EPOCH,MEAN_MOTION,ECCENTRICITY,INCLINATION,RA_OF_ASC_NODE,ARG_OF_PERICENTER,MEAN_ANOMALY,BSTAR,MEAN_MOTION_DOT,MEAN_MOTION_DDOT,TLE_LINE0,TLE_LINE1,TLE_LINE2,SEMIMAJOR_AXIS,PERIOD,APOGEE,PERIGEE,DECAYED
53289.0,STARLINK-4176,PAYLOAD,2023-07-21 02:14:59,15.08836378,0.0001164,53.2166,180.5241,98.2515,261.8609,3.6248e-05,2.89e-06,0.0,0 STARLINK-4176,1 53289U 22086AZ  23202.09374046  .00000289  00000-0  36248-4 0  9993,2 53289  53.2166 180.5241 0001164  98.2515 261.8609 15.08836378 55770,6917.891,95.438,540.562,538.951,0.0
53289.0,STARLINK-4176,PAYLOAD,2023-07-24 00:11:58,15.08829594,0.0001231,53.2168,167.4404,95.5467,264.5666,6.6522e-06,-1.82e-06,0.0,0 STARLINK-4176,1 53289U 22086AZ  23205.00831274 -.00000182  00000-0  66522-5 0  9990,2 53289  53.2168 167.4404 0001231  95.5467 264.5666 15.08829594 56370,6917.912,95.438,540.629,538.926,0.0
53289.0,STARLINK-4176,PAYLOAD,2023-07-25 06:24:16,15.08847721,0.0001166,53.2168,161.7899,94.6546,265.4579,7.0116e-05,8.28e-06,0.0,0 STARLINK-4176,1 53289U 22086AZ  23206.26686151  .00000828  00000-0  70116-4 0  9990,2 53289  53.2168 161.7899 0001166  94.6546 265.4579 15.08847721 56566,6917.857,95.437,540.528,538.915,0.0
53289.0,STARLINK-4176,PAYLOAD,2023-07-26 06:15:04,15.08835787,0.000177,53.2138,157.3284,96.4763,263.6431,2.2487e-05,7e-07,0.0,0 STARLINK-4176,1 53289U 22086AZ  23207.26047279  .00000070  00000-0  22487-4 0  9990,2 53289  53.2138 157.3284 0001770  96.4763 263.6431 15.08835787 56717,6917.893,95.438,540.983,538.534,0.0
53289.0,STARLINK-4176,PAYLOAD,2023-07-27 02:55:04,15.08859569,0.0001401,53.2163,153.4633,101.7823,258.3326,3.1352e-05,2.11e-06,0.0,0 STARLINK-4176,1 53289U 22086AZ  23208.12157506  .00000211  00000-0  31352-4 0  9999,2 53289  53.2163 153.4633 0001401 101.7823 258.3326 15.08859569 56682,6917.821,95.436,540.655,538.716,0.0
53289.0,STARLINK-4176,PAYLOAD,2023-07-27 06:05:50,15.08857426,0.0001416,53.2177,152.87,102.4674,257.6477,0.00012499,1.703e-05,0.0,0 STARLINK-4176,1 53289U 22086AZ  23208.25405290  .00001703  00000-0  12499-3 0  9996,2 53289  53.2177 152.8700 0001416 102.4674 257.6477 15.08857426 56862,6917.827,95.436,540.672,538.713,0.0
53289.0,STARLINK-4176,PAYLOAD,2023-07-28 01:10:29,15.08831218,0.0001338,53.2172,149.3008,94.7687,265.3458,-3.4878e-05,-8.43e-06,0.0,0 STARLINK-4176,1 53289U 22086AZ  23209.04895641 -.00000843  00000-0 -34878-4 0  9999,2 53289  53.2172 149.3008 0001338  94.7687 265.3458 15.08831218 56821,6917.907,95.438,540.698,538.847,0.0
53289.0,STARLINK-4176,PAYLOAD,2023-07-28 02:45:52,15.08831707,0.0001269,53.2168,149.003,97.4157,262.6979,-1.522e-05,-5.3e-06,0.0,0 STARLINK-4176,1 53289U 22086AZ  23209.11519586 -.00000530  00000-0 -15220-4 0  9991,2 53289  53.2168 149.0030 0001269  97.4157 262.6979 15.08831707 56992,6917.906,95.438,540.649,538.893,0.0
53289.0,STARLINK-4176,PAYLOAD,2023-07-29 02:36:38,15.08851238,0.0001138,53.2164,144.5439,85.5005,274.6117,2.7303e-05,1.47e-06,0.0,0 STARLINK-4176,1 53289U 22086AZ  23210.10878440  .00000147  00000-0  27303-4 0  9996,2 53289  53.2164 144.5439 0001138  85.5005 274.6117 15.08851238 56983,6917.846,95.437,540.498,538.924,0.0
53289.0,STARLINK-4176,PAYLOAD,2023-07-29 18:30:31,15.08831762,0.0001215,53.2166,141.5721,96.825,263.288,0.00012795,1.749e-05,0.0,0 STARLINK-4176,1 53289U 22086AZ  23210.77119496  .00001749  00000-0  12795-3 0  9995,2 53289  53.2166 141.5721 0001215  96.8250 263.2880 15.08831762 57082,6917.906,95.438,540.611,538.93,0.0
53289.0,STARLINK-4176,PAYLOAD,2023-07-30 04:02:49,15.08838285,0.0001277,53.2173,139.7872,90.4907,269.6231,0.0001429,1.987e-05,0.0,0 STARLINK-4176,1 53289U 22086AZ  23211.16863277  .00001987  00000-0  14290-3 0  9998,2 53289  53.2173 139.7872 0001277  90.4907 269.6231 15.08838285 57147,6917.886,95.438,540.634,538.867,0.0
53289.0,STARLINK-4176,PAYLOAD,2023-07-31 11:50:32,15.08841192,0.0001302,53.2174,133.8425,97.4781,262.6359,-3.266e-06,-3.4e-06,0.0,0 STARLINK-4176,1 53289U 22086AZ  23212.49343674 -.00000340  00000-0 -32660-5 0  9996,2 53289  53.2174 133.8425 0001302  97.4781 262.6359 15.08841192 57340,6917.877,95.437,540.642,538.841,0.0
53289.0,STARLINK-4176,PAYLOAD,2023-08-02 00:24:25,15.08838003,0.0001224,53.2162,127.0003,92.2028,267.9104,3.1845e-05,2.19e-06,0.0,0 STARLINK-4176,1 53289U 22086AZ  23214.01696206  .00000219  00000-0  31845-4 0  9994,2 53289  53.2162 127.0003 0001224  92.2028 267.9104 15.08838003 57572,6917.886,95.438,540.598,538.905,0.0
53289.0,STARLINK-4176,PAYLOAD,2023-08-03 00:15:11,15.08851773,0.0001249,53.2164,122.5393,90.4555,269.658,0.00013435,1.852e-05,0.0,0 STARLINK-4176,1 53289U 22086AZ  23215.01055251  .00001852  00000-0  13435-3 0  9992,2 53289  53.2164 122.5393 0001249  90.4555 269.6580 15.08851773 57721,6917.844,95.437,540.573,538.845,0.0
53289.0,STARLINK-4176,PAYLOAD,2023-08-04 00:05:59,15.08838012,0.0001284,53.2164,118.0786,81.6541,278.4597,5.2051e-05,5.41e-06,0.0,0 STARLINK-4176,1 53289U 22086AZ  23216.00416651  .00000541  00000-0  52051-4 0  9999,2 53289  53.2164 118.0786 0001284  81.6541 278.4597 15.08838012 57876,6917.886,95.438,540.64,538.863,0.0
53289.0,STARLINK-4176,PAYLOAD,2023-08-05 01:32:09,15.08858038,0.0001218,53.2157,113.3209,80.9088,279.2042,0.00043661,6.671e-05,0.0,0 STARLINK-4176,1 53289U 22086AZ  23217.06399727  .00006671  00000-0  43661-3 0  9996,2 53289  53.2157 113.3209 0001218  80.9088 279.2042 15.08858038 58034,6917.825,95.436,540.533,538.848,0.0
53289.0,STARLINK-4176,PAYLOAD,2023-08-05 23:47:33,15.08860248,0.0001197,53.2155,109.158,87.7133,272.3996,0.00054809,8.45e-05,0.0,0 STARLINK-4176,1 53289U 22086AZ  23217.99135641  .00008450  00000-0  54809-3 0  9994,2 53289  53.2155 109.1580 0001197  87.7133 272.3996 15.08860248 58172,6917.818,95.436,540.512,538.855,0.0
53289.0,STARLINK-4176,PAYLOAD,2023-08-06 09:19:51,15.08840904,0.0001219,53.2154,107.3736,83.6833,276.4297,0.00022813,3.345e-05,0.0,0 STARLINK-4176,1 53289U 22086AZ  23218.38879609  .00003345  00000-0  22813-3 0  9995,2 53289  53.2154 107.3736 0001219  83.6833 276.4297 15.08840904 58234,6917.878,95.437,540.586,538.899,0.0
53289.0,STARLINK-4176,PAYLOAD,2023-08-06 17:16:48,15.08825715,0.0002181,53.2154,105.8869,74.32,285.8032,0.0002625,3.89e-05,0.0,0 STARLINK-4176,1 53289U 22086AZ  23218.72000649  .00003890  00000-0  26250-3 0  9997,2 53289  53.2154 105.8869 0002181  74.3200 285.8032 15.08825715 58287,6917.924,95.438,541.298,538.28,0.0
53289.0,STARLINK-4176,PAYLOAD,2023-08-06 23:38:21,15.08817921,0.0001175,53.2154,104.6982,79.5438,280.5687,-0.00014956,-2.666e-05,0.0,0 STARLINK-4176,1 53289U 22086AZ  23218.98497015 -.00002666  00000-0 -14956-3 0  9994,2 53289  53.2154 104.6982 0001175  79.5438 280.5687 15.08817921 58325,6917.948,95.439,540.626,539.0,0.0
53289.0,STARLINK-4176,PAYLOAD,2023-08-07 18:42:59,15.08841387,0.0001094,53.2157,101.1289,78.7952,281.3163,0.0008281,0.00012916,0.0,0 STARLINK-4176,1 53289U 22086AZ  23219.77985649  .00012916  00000-0  82810-3 0  9998,2 53289  53.2157 101.1289 0001094  78.7952 281.3163 15.08841387 58446,6917.876,95.437,540.498,538.984,0.0
53289.0,STARLINK-4176,PAYLOAD,2023-08-08 09:01:27,15.0886462,0.0001035,53.2152,98.4519,82.4722,277.6388,0.0012769,0.00020106,0.0,0 STARLINK-4176,1 53289U 22086AZ  23220.37601199  .00020106  00000-0  12769-2 0  9996,2 53289  53.2152  98.4519 0001035  82.4722 277.6388 15.08864620 58539,6917.805,95.436,540.386,538.954,0.0
53289.0,STARLINK-4176,PAYLOAD,2023-08-08 18:33:45,15.08865554,0.0001059,53.2153,96.6686,81.2107,278.9005,0.00079005,0.00012317,0.0,0 STARLINK-4176,1 53289U 22086AZ  23220.77344754  .00012317  00000-0  79005-3 0  9993,2 53289  53.2153  96.6686 0001059  81.2107 278.9005 15.08865554 58598,6917.802,95.436,540.4,538.935,0.0
53289.0,STARLINK-4176,PAYLOAD,2023-08-09 08:52:13,15.08863435,0.0001018,53.2151,93.9926,88.7299,271.381,0.0004619,7.076e-05,0.0,0 STARLINK-4176,1 53289U 22086AZ  23221.36960015  .00007076  00000-0  46190-3 0  9998,2 53289  53.2151  93.9926 0001018  88.7299 271.3810 15.08863435 58689,6917.809,95.436,540.378,538.97,0.0
53289.0,STARLINK-4176,PAYLOAD,2023-08-09 21:35:18,15.0884639,9.83e-05,53.2151,91.6141,94.5558,265.5547,0.00010641,1.406e-05,0.0,0 STARLINK-4176,1 53289U 22086AZ  23221.89951986  .00001406  00000-0  10641-3 0  9996,2 53289  53.2151  91.6141 0000983  94.5558 265.5547 15.08846390 58768,6917.861,95.437,540.406,539.046,0.0
53289.0,STARLINK-4176,PAYLOAD,2023-08-10 15:04:33,15.088391,0.0001126,53.217,88.3435,85.0761,275.036,8.5781e-05,1.078e-05,0.0,0 STARLINK-4176,1 53289U 22086AZ  23222.62816352  .00001078  00000-0  85781-4 0  9998,2 53289  53.2170  88.3435 0001126  85.0761 275.0360 15.08839100 58871,6917.883,95.438,540.527,538.969,0.0
53289.0,STARLINK-4176,PAYLOAD,2023-08-11 08:33:48,15.0883397,0.0001456,53.2157,85.068,102.9804,257.1351,5.0744e-05,5.2e-06,0.0,0 STARLINK-4176,1 53289U 22086AZ  23223.35680897  .00000520  00000-0  50744-4 0  9994,2 53289  53.2157  85.0680 0001456 102.9804 257.1351 15.08833970 58987,6917.899,95.438,540.771,538.757,0.0
53289.0,STARLINK-4176,PAYLOAD,2023-08-12 09:59:58,15.08840118,0.0001153,53.2159,80.3134,86.3013,273.8111,0.00019772,2.86e-05,0.0,0 STARLINK-4176,1 53289U 22086AZ  23224.41664910  .00002860  00000-0  19772-3 0  9994,2 53289  53.2159  80.3134 0001153  86.3013 273.8111 15.08840118 59142,6917.88,95.438,540.543,538.947,0.0
53289.0,STARLINK-4176,PAYLOAD,2023-08-13 19:23:04,15.08834938,0.0001023,53.216,74.0691,83.483,276.6279,0.00019689,2.847e-05,0.0,0 STARLINK-4176,1 53289U 22086AZ  23225.80769330  .00002847  00000-0  19689-3 0  9992,2 53289  53.2160  74.0691 0001023  83.4830 276.6279 15.08834938 59355,6917.896,95.438,540.469,539.053,0.0
53289.0,STARLINK-4176,PAYLOAD,2023-08-14 22:24:37,15.08846666,0.0001119,53.2163,69.0128,83.2796,276.8324,0.00011902,1.607e-05,0.0,0 STARLINK-4176,1 53289U 22086AZ  23226.93376673  .00001607  00000-0  11902-3 0  9994,2 53289  53.2163  69.0128 0001119  83.2796 276.8324 15.08846666 59525,6917.86,95.437,540.499,538.951,0.0
